STARLINK-30595          
1 58111U 23161Q   25212.95180381 -.00000872  00000+0 -17344-4 0  9997
2 58111  53.1601 110.9823 0001058  91.9302 268.1820 15.30191523100622
STARLINK-30593          
1 58112U 23161R   25212.94863553 -.00001840  00000+0 -50020-4 0  9990
2 58112  53.1595 110.9565 0000920  71.8555 288.2545 15.30196426100626
STARLINK-30353          
1 58113U 23161S   25212.95812986 -.00004650  00000+0 -14494-3 0  9992
2 58113  53.1605 111.0194 0000985  86.9245 273.1869 15.30207226100626
STARLINK-30572          
1 58114U 23161T   25212.94546937 -.00000441  00000+0 -27568-5 0  9994
2 58114  53.1606 110.9400 0001259  90.7350 269.3795 15.30196597100624
STARLINK-30580          
1 58115U 23161U   25212.91908427  .00000766  00000+0  38017-4 0  9996
2 58115  53.1599 110.7551 0001518 106.3785 253.7383 15.30189892100625
STARLINK-30493          
1 58116U 23161V   25212.95496739 -.00000519  00000+0 -54096-5 0  9993
2 58116  53.1601 110.9998 0001204 117.2640 242.8483 15.30193100100627
STARLINK-30601          
1 58117U 23161W   25212.96130326 -.00000772  00000+0 -13937-4 0  9991
2 58117  53.1602 111.0394 0001214  97.4482 262.6657 15.30187744100625
STARLINK-30795          
1 58118U 23162A   25212.41362057  .00000476  00000+0  50291-4 0  9994
2 58118  43.0021 255.5094 0001850 284.2122  75.8515 15.02538399 99015
STARLINK-30765          
1 58119U 23162B   25212.43137650  .00000263  00000+0  34532-4 0  9990
2 58119  43.0035 255.6207 0000435 200.0182 160.0643 15.02536816 99019
STARLINK-30768          
1 58120U 23162C   25212.41029021 -.00000223  00000+0 -14057-5 0  9991
2 58120  43.0026 255.4820 0001395 275.1836  84.8847 15.02536589 99011
STARLINK-30799          
1 58121U 23162D   25212.43026308  .00000336  00000+0  39939-4 0  9997
2 58121  43.0022 255.6100 0000309 198.3012 161.7820 15.02538122 99018
STARLINK-30759          
1 58122U 23162E   25212.14216008  .00000185  00000+0  28775-4 0  9992
2 58122  43.0026 256.9072 0001668 274.8953  85.1698 15.02535546 98982
STARLINK-30781          
1 58123U 23162F   25212.47343983 -.00000060  00000+0  10610-4 0  9994
2 58123  43.0018 255.0917 0001523 286.3267  73.7408 15.02537012 99026
STARLINK-30754          
1 58124U 23162G   25212.42692229  .00002406  00000+0  19301-3 0  9990
2 58124  43.0023 255.5830 0000153 201.6531 158.4305 15.02553334 93222
STARLINK-30766          
1 58125U 23162H   25212.47011021  .00000241  00000+0  32954-4 0  9996
2 58125  43.0028 255.0653 0001629 269.9888  90.0768 15.02539191 99020
STARLINK-30767          
1 58126U 23162J   25212.46677875  .00000586  00000+0  58477-4 0  9991
2 58126  43.0027 255.0413 0001766 277.9048  82.1594 15.02537286 99025
STARLINK-30790          
1 58127U 23162K   25212.46344805  .00000835  00000+0  76906-4 0  9990
2 58127  43.0025 255.0124 0001511 276.9251  83.1419 15.02535497 99025
