[{"OBJECT_NAME":"STARLINK-30595","OBJECT_ID":"2023-161Q","EPOCH":"2025-07-31T22:50:35.849184","MEAN_MOTION":15.30191523,"ECCENTRICITY":0.0001058,"INCLINATION":53.1601,"RA_OF_ASC_NODE":110.9823,"ARG_OF_PERICENTER":91.9302,"MEAN_ANOMALY":268.182,"EPHEMERIS_TYPE":0,"CLASSIFICATION_TYPE":"U","NORAD_CAT_ID":58111,"ELEMENT_SET_NO":999,"REV_AT_EPOCH":10062,"BSTAR":-1.7344e-5,"MEAN_MOTION_DOT":-8.72e-6,"MEAN_MOTION_DDOT":0},{"OBJECT_NAME":"STARLINK-30593","OBJECT_ID":"2023-161R","EPOCH":"2025-07-31T22:46:02.109792","MEAN_MOTION":15.30196426,"ECCENTRICITY":9.2e-5,"INCLINATION":53.1595,"RA_OF_ASC_NODE":110.9565,"ARG_OF_PERICENTER":71.8555,"MEAN_ANOMALY":288.2545,"EPHEMERIS_TYPE":0,"CLASSIFICATION_TYPE":"U","NORAD_CAT_ID":58112,"ELEMENT_SET_NO":999,"REV_AT_EPOCH":10062,"BSTAR":-5.002e-5,"MEAN_MOTION_DOT":-1.84e-5,"MEAN_MOTION_DDOT":0},{"OBJECT_NAME":"STARLINK-30353","OBJECT_ID":"2023-161S","EPOCH":"2025-07-31T22:59:42.419904","MEAN_MOTION":15.30207226,"ECCENTRICITY":9.85e-5,"INCLINATION":53.1605,"RA_OF_ASC_NODE":111.0194,"ARG_OF_PERICENTER":86.9245,"MEAN_ANOMALY":273.1869,"EPHEMERIS_TYPE":0,"CLASSIFICATION_TYPE":"U","NORAD_CAT_ID":58113,"ELEMENT_SET_NO":999,"REV_AT_EPOCH":10062,"BSTAR":-0.00014494,"MEAN_MOTION_DOT":-4.65e-5,"MEAN_MOTION_DDOT":0},{"OBJECT_NAME":"STARLINK-30572","OBJECT_ID":"2023-161T","EPOCH":"2025-07-31T22:41:28.553568","MEAN_MOTION":15.30196597,"ECCENTRICITY":0.0001259,"INCLINATION":53.1606,"RA_OF_ASC_NODE":110.94,"ARG_OF_PERICENTER":90.735,"MEAN_ANOMALY":269.3795,"EPHEMERIS_TYPE":0,"CLASSIFICATION_TYPE":"U","NORAD_CAT_ID":58114,"ELEMENT_SET_NO":999,"REV_AT_EPOCH":10062,"BSTAR":-2.7568e-6,"MEAN_MOTION_DOT":-4.41e-6,"MEAN_MOTION_DDOT":0},{"OBJECT_NAME":"STARLINK-30580","OBJECT_ID":"2023-161U","EPOCH":"2025-07-31T22:03:28.880928","MEAN_MOTION":15.30189892,"ECCENTRICITY":0.0001518,"INCLINATION":53.1599,"RA_OF_ASC_NODE":110.7551,"ARG_OF_PERICENTER":106.3785,"MEAN_ANOMALY":253.7383,"EPHEMERIS_TYPE":0,"CLASSIFICATION_TYPE":"U","NORAD_CAT_ID":58115,"ELEMENT_SET_NO":999,"REV_AT_EPOCH":10062,"BSTAR":3.8017e-5,"MEAN_MOTION_DOT":7.66e-6,"MEAN_MOTION_DDOT":0},{"OBJECT_NAME":"STARLINK-30493","OBJECT_ID":"2023-161V","EPOCH":"2025-07-31T22:55:09.182496","MEAN_MOTION":15.301931,"ECCENTRICITY":0.0001204,"INCLINATION":53.1601,"RA_OF_ASC_NODE":110.9998,"ARG_OF_PERICENTER":117.264,"MEAN_ANOMALY":242.8483,"EPHEMERIS_TYPE":0,"CLASSIFICATION_TYPE":"U","NORAD_CAT_ID":58116,"ELEMENT_SET_NO":999,"REV_AT_EPOCH":10062,"BSTAR":-5.4096e-6,"MEAN_MOTION_DOT":-5.19e-6,"MEAN_MOTION_DDOT":0},{"OBJECT_NAME":"STARLINK-30601","OBJECT_ID":"2023-161W","EPOCH":"2025-07-31T23:04:16.601664","MEAN_MOTION":15.30187744,"ECCENTRICITY":0.0001214,"INCLINATION":53.1602,"RA_OF_ASC_NODE":111.0394,"ARG_OF_PERICENTER":97.4482,"MEAN_ANOMALY":262.6657,"EPHEMERIS_TYPE":0,"CLASSIFICATION_TYPE":"U","NORAD_CAT_ID":58117,"ELEMENT_SET_NO":999,"REV_AT_EPOCH":10062,"BSTAR":-1.3937e-5,"MEAN_MOTION_DOT":-7.72e-6,"MEAN_MOTION_DDOT":0},{"OBJECT_NAME":"STARLINK-30795","OBJECT_ID":"2023-162A","EPOCH":"2025-07-31T09:55:36.817248","MEAN_MOTION":15.02538399,"ECCENTRICITY":0.000185,"INCLINATION":43.0021,"RA_OF_ASC_NODE":255.5094,"ARG_OF_PERICENTER":284.2122,"MEAN_ANOMALY":75.8515,"EPHEMERIS_TYPE":0,"CLASSIFICATION_TYPE":"U","NORAD_CAT_ID":58118,"ELEMENT_SET_NO":999,"REV_AT_EPOCH":9901,"BSTAR":5.0291e-5,"MEAN_MOTION_DOT":4.76e-6,"MEAN_MOTION_DDOT":0},{"OBJECT_NAME":"STARLINK-30765","OBJECT_ID":"2023-162B","EPOCH":"2025-07-31T10:21:10.929600","MEAN_MOTION":15.02536816,"ECCENTRICITY":4.35e-5,"INCLINATION":43.0035,"RA_OF_ASC_NODE":255.6207,"ARG_OF_PERICENTER":200.0182,"MEAN_ANOMALY":160.0643,"EPHEMERIS_TYPE":0,"CLASSIFICATION_TYPE":"U","NORAD_CAT_ID":58119,"ELEMENT_SET_NO":999,"REV_AT_EPOCH":9901,"BSTAR":3.4532e-5,"MEAN_MOTION_DOT":2.63e-6,"MEAN_MOTION_DDOT":0},{"OBJECT_NAME":"STARLINK-30768","OBJECT_ID":"2023-162C","EPOCH":"2025-07-31T09:50:49.074144","MEAN_MOTION":15.02536589,"ECCENTRICITY":0.0001395,"INCLINATION":43.0026,"RA_OF_ASC_NODE":255.482,"ARG_OF_PERICENTER":275.1836,"MEAN_ANOMALY":84.8847,"EPHEMERIS_TYPE":0,"CLASSIFICATION_TYPE":"U","NORAD_CAT_ID":58120,"ELEMENT_SET_NO":999,"REV_AT_EPOCH":9901,"BSTAR":-1.4057e-6,"MEAN_MOTION_DOT":-2.23e-6,"MEAN_MOTION_DDOT":0},{"OBJECT_NAME":"STARLINK-30799","OBJECT_ID":"2023-162D","EPOCH":"2025-07-31T10:19:34.730112","MEAN_MOTION":15.02538122,"ECCENTRICITY":3.09e-5,"INCLINATION":43.0022,"RA_OF_ASC_NODE":255.61,"ARG_OF_PERICENTER":198.3012,"MEAN_ANOMALY":161.782,"EPHEMERIS_TYPE":0,"CLASSIFICATION_TYPE":"U","NORAD_CAT_ID":58121,"ELEMENT_SET_NO":999,"REV_AT_EPOCH":9901,"BSTAR":3.9939e-5,"MEAN_MOTION_DOT":3.36e-6,"MEAN_MOTION_DDOT":0},{"OBJECT_NAME":"STARLINK-30759","OBJECT_ID":"2023-162E","EPOCH":"2025-07-31T03:24:42.630912","MEAN_MOTION":15.02535546,"ECCENTRICITY":0.0001668,"INCLINATION":43.0026,"RA_OF_ASC_NODE":256.9072,"ARG_OF_PERICENTER":274.8953,"MEAN_ANOMALY":85.1698,"EPHEMERIS_TYPE":0,"CLASSIFICATION_TYPE":"U","NORAD_CAT_ID":58122,"ELEMENT_SET_NO":999,"REV_AT_EPOCH":9898,"BSTAR":2.8775e-5,"MEAN_MOTION_DOT":1.85e-6,"MEAN_MOTION_DDOT":0},{"OBJECT_NAME":"STARLINK-30781","OBJECT_ID":"2023-162F","EPOCH":"2025-07-31T11:21:45.201312","MEAN_MOTION":15.02537012,"ECCENTRICITY":0.0001523,"INCLINATION":43.0018,"RA_OF_ASC_NODE":255.0917,"ARG_OF_PERICENTER":286.3267,"MEAN_ANOMALY":73.7408,"EPHEMERIS_TYPE":0,"CLASSIFICATION_TYPE":"U","NORAD_CAT_ID":58123,"ELEMENT_SET_NO":999,"REV_AT_EPOCH":9902,"BSTAR":1.061e-5,"MEAN_MOTION_DOT":-6.0e-7,"MEAN_MOTION_DDOT":0},{"OBJECT_NAME":"STARLINK-30754","OBJECT_ID":"2023-162G","EPOCH":"2025-07-31T10:14:46.085856","MEAN_MOTION":15.02553334,"ECCENTRICITY":1.53e-5,"INCLINATION":43.0023,"RA_OF_ASC_NODE":255.583,"ARG_OF_PERICENTER":201.6531,"MEAN_ANOMALY":158.4305,"EPHEMERIS_TYPE":0,"CLASSIFICATION_TYPE":"U","NORAD_CAT_ID":58124,"ELEMENT_SET_NO":999,"REV_AT_EPOCH":9322,"BSTAR":0.00019301,"MEAN_MOTION_DOT":2.406e-5,"MEAN_MOTION_DDOT":0},{"OBJECT_NAME":"STARLINK-30766","OBJECT_ID":"2023-162H","EPOCH":"2025-07-31T11:16:57.522144","MEAN_MOTION":15.02539191,"ECCENTRICITY":0.0001629,"INCLINATION":43.0028,"RA_OF_ASC_NODE":255.0653,"ARG_OF_PERICENTER":269.9888,"MEAN_ANOMALY":90.0768,"EPHEMERIS_TYPE":0,"CLASSIFICATION_TYPE":"U","NORAD_CAT_ID":58125,"ELEMENT_SET_NO":999,"REV_AT_EPOCH":9902,"BSTAR":3.2954e-5,"MEAN_MOTION_DOT":2.41e-6,"MEAN_MOTION_DDOT":0},{"OBJECT_NAME":"STARLINK-30767","OBJECT_ID":"2023-162J","EPOCH":"2025-07-31T11:12:09.684000","MEAN_MOTION":15.02537286,"ECCENTRICITY":0.0001766,"INCLINATION":43.0027,"RA_OF_ASC_NODE":255.0413,"ARG_OF_PERICENTER":277.9048,"MEAN_ANOMALY":82.1594,"EPHEMERIS_TYPE":0,"CLASSIFICATION_TYPE":"U","NORAD_CAT_ID":58126,"ELEMENT_SET_NO":999,"REV_AT_EPOCH":9902,"BSTAR":5.8477e-5,"MEAN_MOTION_DOT":5.86e-6,"MEAN_MOTION_DDOT":0},{"OBJECT_NAME":"STARLINK-30790","OBJECT_ID":"2023-162K","EPOCH":"2025-07-31T11:07:21.911520","MEAN_MOTION":15.02535497,"ECCENTRICITY":0.0001511,"INCLINATION":43.0025,"RA_OF_ASC_NODE":255.0124,"ARG_OF_PERICENTER":276.9251,"MEAN_ANOMALY":83.1419,"EPHEMERIS_TYPE":0,"CLASSIFICATION_TYPE":"U","NORAD_CAT_ID":58127,"ELEMENT_SET_NO":999,"REV_AT_EPOCH":9902,"BSTAR":7.6906e-5,"MEAN_MOTION_DOT":8.35e-6,"MEAN_MOTION_DDOT":0}]
